{
    "links": {
        "self": "http://www.neowsapp.com/rest/v1/neo/3555156?api_key=iIulBulltgU6a56xZRHN4H3l9WmuAYTsLGpBGhQ2"
    },
    "id": "3555156",
    "neo_reference_id": "3555156",
    "name": "(2011 AL24)",
    "designation": "2011 AL24",
    "nasa_jpl_url": "http://ssd.jpl.nasa.gov/sbdb.cgi?sstr=3555156",
    "absolute_magnitude_h": 22.3,
    "estimated_diameter": {
        "kilometers": {
            "estimated_diameter_min": 0.0921626549,
            "estimated_diameter_max": 0.2060819612
        },
        "meters": {
            "estimated_diameter_min": 92.1626548503,
            "estimated_diameter_max": 206.0819612321
        },
        "miles": {
            "estimated_diameter_min": 0.057267201,
            "estimated_diameter_max": 0.1280533543
        },
        "feet": {
            "estimated_diameter_min": 302.370924539,
            "estimated_diameter_max": 676.1219416887
        }
    },
    "is_potentially_hazardous_asteroid": false,
    "close_approach_data": [
        {
            "close_approach_date": "2002-02-22",
            "close_approach_date_full": "2002-Feb-22 11:15",
            "epoch_date_close_approach": 1014376500000,
            "relative_velocity": {
                "kilometers_per_second": "7.5278180667",
                "kilometers_per_hour": "27100.1450399548",
                "miles_per_hour": "16838.9762332986"
            },
            "miss_distance": {
                "astronomical": "0.3910074385",
                "lunar": "152.1018935765",
                "kilometers": "58493879.953755995",
                "miles": "36346411.597762931"
            },
            "orbiting_body": "Earth"
        },
        {
            "close_approach_date": "2011-02-07",
            "close_approach_date_full": "2011-Feb-07 19:54",
            "epoch_date_close_approach": 1297108440000,
            "relative_velocity": {
                "kilometers_per_second": "5.1069012476",
                "kilometers_per_hour": "18384.8444914074",
                "miles_per_hour": "11423.6274007859"
            },
            "miss_distance": {
                "astronomical": "0.1661787617",
                "lunar": "64.6435383013",
                "kilometers": "24859988.789557579",
                "miles": "15447280.7339054302"
            },
            "orbiting_body": "Earth"
        }
    ],
    "orbital_data": {
        "orbit_id": "11",
        "orbit_determination_date": "2017-04-06 08:55:01",
        "first_observation_date": "2011-01-11",
        "last_observation_date": "2011-02-07",
        "data_arc_in_days": 27,
        "observations_used": 46,
        "orbit_uncertainty": "7",
        "minimum_orbit_intersection": ".158486",
        "jupiter_tisserand_invariant": "4.090",
        "epoch_osculation": "2459000.5",
        "eccentricity": ".3452570899089625",
        "semi_major_axis": "1.722997368743069",
        "inclination": "7.84734312927429",
        "ascending_node_longitude": "291.9329317428811",
        "orbital_period": "826.0861638361249",
        "perihelion_distance": "1.128120311290038",
        "perihelion_argument": "214.8585882464785",
        "aphelion_distance": "2.317874426196101",
        "perihelion_time": "2458909.544697135141",
        "mean_anomaly": "39.63740159899922",
        "mean_motion": ".4357898918537209",
        "equinox": "J2000",
        "orbit_class": {
            "orbit_class_type": "AMO",
            "orbit_class_description": "Near-Earth asteroid orbits similar to that of 1221 Amor",
            "orbit_class_range": "1.017 AU < q (perihelion) < 1.3 AU"
        }
    },
    "is_sentry_object": false
}